0 DELTA 1 R/B
1 07616U 75004B   13280.80190481 -.00000063  00000-0 -15039-4 0  7947
2 07616 097.7596 219.0766 0187038 219.1789 193.8701 14.04653268969394
0 DELTA 1 R/B
1 07616U 75004B   13282.93672581  .00000139  00000-0  93075-4 0  7958
2 07616 097.7599 220.9046 0187238 213.0282 189.1292 14.04652037969691
0 DELTA 1 R/B
1 07616U 75004B   13285.44923837  .00000374  00000-0  21827-3 0  7967
2 07616 097.7607 223.0558 0187428 205.7798 294.2825 14.04651243970043
0 DELTA 1 R/B
1 07616U 75004B   13287.78432331  .00000546  00000-0  30991-3 0  7974
2 07616 097.7617 225.0550 0187578 199.0464 222.2207 14.04652095970376
0 DELTA 1 R/B
1 07616U 75004B   13289.85049178  .00000563  00000-0  31917-3 0  7986
2 07616 097.7624 226.8241 0187723 193.0928 230.3165 14.04654496970663
0 DELTA 1 R/B
1 07616U 75004B   13291.91218355  .00000458  00000-0  26292-3 0  7995
2 07616 097.7630 228.5898 0187827 187.1329 215.8060 14.04657516970951
0 DELTA 1 R/B
1 07616U 75004B   13294.49435841  .00000227  00000-0  13911-3 0  8003
2 07616 097.7633 230.8015 0187946 179.6529 313.2979 14.04661934971313
